{
    "links": {
        "self": "http://www.neowsapp.com/rest/v1/neo/3797421?api_key=iIulBulltgU6a56xZRHN4H3l9WmuAYTsLGpBGhQ2"
    },
    "id": "3797421",
    "neo_reference_id": "3797421",
    "name": "(2018 AF1)",
    "designation": "2018 AF1",
    "nasa_jpl_url": "http://ssd.jpl.nasa.gov/sbdb.cgi?sstr=3797421",
    "absolute_magnitude_h": 23.0,
    "estimated_diameter": {
        "kilometers": {
            "estimated_diameter_min": 0.0667659413,
            "estimated_diameter_max": 0.1492931834
        },
        "meters": {
            "estimated_diameter_min": 66.7659413495,
            "estimated_diameter_max": 149.2931834393
        },
        "miles": {
            "estimated_diameter_min": 0.0414864197,
            "estimated_diameter_max": 0.0927664547
        },
        "feet": {
            "estimated_diameter_min": 219.0483710172,
            "estimated_diameter_max": 489.807047955
        }
    },
    "is_potentially_hazardous_asteroid": false,
    "close_approach_data": [
        {
            "close_approach_date": "2018-01-18",
            "close_approach_date_full": "2018-Jan-18 20:52",
            "epoch_date_close_approach": 1516308720000,
            "relative_velocity": {
                "kilometers_per_second": "24.5545901212",
                "kilometers_per_hour": "88396.5244361846",
                "miles_per_hour": "54926.1626420282"
            },
            "miss_distance": {
                "astronomical": "0.0318141071",
                "lunar": "12.3756876619",
                "kilometers": "4759322.658111877",
                "miles": "2957305.9676508226"
            },
            "orbiting_body": "Earth"
        }
    ],
    "orbital_data": {
        "orbit_id": "7",
        "orbit_determination_date": "2018-01-22 06:52:43",
        "first_observation_date": "2018-01-07",
        "last_observation_date": "2018-01-19",
        "data_arc_in_days": 12,
        "observations_used": 57,
        "orbit_uncertainty": "8",
        "minimum_orbit_intersection": ".00582442",
        "jupiter_tisserand_invariant": "3.095",
        "epoch_osculation": "2458128.5",
        "eccentricity": ".7788042245654734",
        "semi_major_axis": "2.274200439828522",
        "inclination": "13.38410482051738",
        "ascending_node_longitude": "295.4599840157682",
        "orbital_period": "1252.684015151438",
        "perihelion_distance": ".5030435297814113",
        "perihelion_argument": "278.199615220362",
        "aphelion_distance": "4.045357349875632",
        "perihelion_time": "2458181.761279232931",
        "mean_anomaly": "344.6936176306702",
        "mean_motion": ".2873829278938146",
        "equinox": "J2000",
        "orbit_class": {
            "orbit_class_type": "APO",
            "orbit_class_description": "Near-Earth asteroid orbits which cross the Earth’s orbit similar to that of 1862 Apollo",
            "orbit_class_range": "a (semi-major axis) > 1.0 AU; q (perihelion) < 1.017 AU"
        }
    },
    "is_sentry_object": false
}